[{"OBJECT_NAME":"STARLINK-35452","OBJECT_ID":"2025-236U","EPOCH":"2026-03-09T08:51:25.444800","MEAN_MOTION":15.30188556,"ECCENTRICITY":0.00013357,"INCLINATION":53.159,"RA_OF_ASC_NODE":105.4911,"ARG_OF_PERICENTER":87.3218,"MEAN_ANOMALY":272.7936,"EPHEMERIS_TYPE":0,"CLASSIFICATION_TYPE":"U","NORAD_CAT_ID":66104,"ELEMENT_SET_NO":999,"REV_AT_EPOCH":2289,"BSTAR":0.00034143843,"MEAN_MOTION_DOT":9.763e-5,"MEAN_MOTION_DDOT":0},{"OBJECT_NAME":"CZ-2C R\/B","OBJECT_ID":"2017-085D","EPOCH":"2026-03-09T07:36:19.955232","MEAN_MOTION":15.36259494,"ECCENTRICITY":0.00550258,"INCLINATION":34.6583,"RA_OF_ASC_NODE":163.0948,"ARG_OF_PERICENTER":204.4819,"MEAN_ANOMALY":155.3278,"EPHEMERIS_TYPE":0,"CLASSIFICATION_TYPE":"U","NORAD_CAT_ID":43084,"ELEMENT_SET_NO":999,"REV_AT_EPOCH":45326,"BSTAR":0.00049058122,"MEAN_MOTION_DOT":0.00018774,"MEAN_MOTION_DDOT":0}]
